ZACUBE-1 (TSHEPISOSAT)  
1 39417U 13066B   25144.40589281  .00003711  00000+0  32522-3 0  9991
2 39417  97.7781 101.5079 0045761 105.5768 255.0511 14.96479827622492
GOMX-1                  
1 39430U 13066Q   25144.87266556  .00001315  00000+0  21174-3 0  9993
2 39430  97.6853   4.5008 0131202 242.4835 116.2987 14.67576664613100
CUBEBUG-2 (LO-74)       
1 39440U 13066AA  25144.82753106  .00002188  00000+0  22622-3 0  9999
2 39440  97.8488  89.4990 0060720 231.2471 128.3311 14.89828246620290
FUNCUBE-1 (AO-73)       
1 39444U 13066AE  25144.42740572  .00006164  00000+0  46426-3 0  9998
2 39444  97.7828 106.2809 0044060  81.7302 278.8915 15.02083994621165
UWE-3                   
1 39446U 13066AG  25144.38278813  .00002423  00000+0  23374-3 0  9990
2 39446  97.8227  95.3993 0053438 171.0781 189.1400 14.92769810619498
UNISAT-6                
1 40012U 14033C   25144.51234016  .00002609  00000+0  30564-3 0  9993
2 40012  97.7402 301.1548 0046453 267.3733  92.2164 14.85111604588414
DUCHIFAT-1              
1 40021U 14033M   25144.48341421  .00017266  00000+0  63599-3 0  9997
2 40021  98.0954 157.4309 0009152  28.0961 332.0769 15.27874999595860
QB50P1                  
1 40025U 14033R   25144.44344345  .00006294  00000+0  38859-3 0  9995
2 40025  98.0811 126.1426 0012252 107.2130 253.0440 15.10227718594200
LILACSAT-2              
1 40908U 15049K   25144.87205244  .00009754  00000+0  25834-3 0  9997
2 40908  97.5064 164.8429 0008504 204.7691 155.3146 15.38540055535817
FOX-1A (AO-85)          
1 40967U 15058D   25144.73786330  .00001910  00000+0  17819-3 0  9997
2 40967  64.7771  43.4308 0163280 200.5970 158.8511 14.87918979 55715
CAS-2T & KS-1Q          
1 41847U 16066G   25144.46089312  .00000944  00000+0  14438-3 0  9991
2 41847  98.4202 219.0632 0345416 227.1339 130.0365 14.43427485448695
ZHUHAI-1 02 (CAS-4B)    
1 42759U 17034B   25144.86878387  .00047888  00000+0  54427-3 0  9992
2 42759  43.0081  55.3830 0019567 186.7107 173.3498 15.61315344440148
ZHUHAI-1 01 (CAS-4A)    
1 42761U 17034D   25144.78619047  .00053182  00000+0  57696-3 0  9997
2 42761  43.0120  53.1924 0020920 190.1974 169.8468 15.62437070440151
RADFXSAT (FOX-1B)       
1 43017U 17073E   25144.63160652  .00005010  00000+0  26127-3 0  9994
2 43017  97.5289  15.8117 0172023 220.4133 138.4211 15.04465445406817
