[
  {
    "OBJECT_NAME": "ZACUBE-1 (TSHEPISOSAT)",
    "OBJECT_ID": "2013-066B",
    "EPOCH": "2025-05-24T09:44:29.138784",
    "MEAN_MOTION": 14.96479827,
    "ECCENTRICITY": 0.0045761,
    "INCLINATION": 97.7781,
    "RA_OF_ASC_NODE": 101.5079,
    "ARG_OF_PERICENTER": 105.5768,
    "MEAN_ANOMALY": 255.0511,
    "EPHEMERIS_TYPE": 0,
    "CLASSIFICATION_TYPE": "U",
    "NORAD_CAT_ID": 39417,
    "ELEMENT_SET_NO": 999,
    "REV_AT_EPOCH": 62249,
    "BSTAR": 0.00032522,
    "MEAN_MOTION_DOT": 3.711e-05,
    "MEAN_MOTION_DDOT": 0
  },
  {
    "OBJECT_NAME": "GOMX-1",
    "OBJECT_ID": "2013-066Q",
    "EPOCH": "2025-05-24T20:56:38.304384",
    "MEAN_MOTION": 14.67576664,
    "ECCENTRICITY": 0.0131202,
    "INCLINATION": 97.6853,
    "RA_OF_ASC_NODE": 4.5008,
    "ARG_OF_PERICENTER": 242.4835,
    "MEAN_ANOMALY": 116.2987,
    "EPHEMERIS_TYPE": 0,
    "CLASSIFICATION_TYPE": "U",
    "NORAD_CAT_ID": 39430,
    "ELEMENT_SET_NO": 999,
    "REV_AT_EPOCH": 61310,
    "BSTAR": 0.00021174,
    "MEAN_MOTION_DOT": 1.315e-05,
    "MEAN_MOTION_DDOT": 0
  },
  {
    "OBJECT_NAME": "CUBEBUG-2 (LO-74)",
    "OBJECT_ID": "2013-066AA",
    "EPOCH": "2025-05-24T19:51:38.683584",
    "MEAN_MOTION": 14.89828246,
    "ECCENTRICITY": 0.006072,
    "INCLINATION": 97.8488,
    "RA_OF_ASC_NODE": 89.499,
    "ARG_OF_PERICENTER": 231.2471,
    "MEAN_ANOMALY": 128.3311,
    "EPHEMERIS_TYPE": 0,
    "CLASSIFICATION_TYPE": "U",
    "NORAD_CAT_ID": 39440,
    "ELEMENT_SET_NO": 999,
    "REV_AT_EPOCH": 62029,
    "BSTAR": 0.00022622,
    "MEAN_MOTION_DOT": 2.188e-05,
    "MEAN_MOTION_DDOT": 0
  },
  {
    "OBJECT_NAME": "FUNCUBE-1 (AO-73)",
    "OBJECT_ID": "2013-066AE",
    "EPOCH": "2025-05-24T10:15:27.854208",
    "MEAN_MOTION": 15.02083994,
    "ECCENTRICITY": 0.004406,
    "INCLINATION": 97.7828,
    "RA_OF_ASC_NODE": 106.2809,
    "ARG_OF_PERICENTER": 81.7302,
    "MEAN_ANOMALY": 278.8915,
    "EPHEMERIS_TYPE": 0,
    "CLASSIFICATION_TYPE": "U",
    "NORAD_CAT_ID": 39444,
    "ELEMENT_SET_NO": 999,
    "REV_AT_EPOCH": 62116,
    "BSTAR": 0.00046426,
    "MEAN_MOTION_DOT": 6.164e-05,
    "MEAN_MOTION_DDOT": 0
  },
  {
    "OBJECT_NAME": "UWE-3",
    "OBJECT_ID": "2013-066AG",
    "EPOCH": "2025-05-24T09:11:12.894432",
    "MEAN_MOTION": 14.9276981,
    "ECCENTRICITY": 0.0053438,
    "INCLINATION": 97.8227,
    "RA_OF_ASC_NODE": 95.3993,
    "ARG_OF_PERICENTER": 171.0781,
    "MEAN_ANOMALY": 189.14,
    "EPHEMERIS_TYPE": 0,
    "CLASSIFICATION_TYPE": "U",
    "NORAD_CAT_ID": 39446,
    "ELEMENT_SET_NO": 999,
    "REV_AT_EPOCH": 61949,
    "BSTAR": 0.00023374,
    "MEAN_MOTION_DOT": 2.423e-05,
    "MEAN_MOTION_DDOT": 0
  },
  {
    "OBJECT_NAME": "UNISAT-6",
    "OBJECT_ID": "2014-033C",
    "EPOCH": "2025-05-24T12:17:46.189824",
    "MEAN_MOTION": 14.85111604,
    "ECCENTRICITY": 0.0046453,
    "INCLINATION": 97.7402,
    "RA_OF_ASC_NODE": 301.1548,
    "ARG_OF_PERICENTER": 267.3733,
    "MEAN_ANOMALY": 92.2164,
    "EPHEMERIS_TYPE": 0,
    "CLASSIFICATION_TYPE": "U",
    "NORAD_CAT_ID": 40012,
    "ELEMENT_SET_NO": 999,
    "REV_AT_EPOCH": 58841,
    "BSTAR": 0.00030564,
    "MEAN_MOTION_DOT": 2.609e-05,
    "MEAN_MOTION_DDOT": 0
  },
  {
    "OBJECT_NAME": "DUCHIFAT-1",
    "OBJECT_ID": "2014-033M",
    "EPOCH": "2025-05-24T11:36:06.987744",
    "MEAN_MOTION": 15.27874999,
    "ECCENTRICITY": 0.0009152,
    "INCLINATION": 98.0954,
    "RA_OF_ASC_NODE": 157.4309,
    "ARG_OF_PERICENTER": 28.0961,
    "MEAN_ANOMALY": 332.0769,
    "EPHEMERIS_TYPE": 0,
    "CLASSIFICATION_TYPE": "U",
    "NORAD_CAT_ID": 40021,
    "ELEMENT_SET_NO": 999,
    "REV_AT_EPOCH": 59586,
    "BSTAR": 0.00063599,
    "MEAN_MOTION_DOT": 0.00017266,
    "MEAN_MOTION_DDOT": 0
  },
  {
    "OBJECT_NAME": "QB50P1",
    "OBJECT_ID": "2014-033R",
    "EPOCH": "2025-05-24T10:38:33.514080",
    "MEAN_MOTION": 15.10227718,
    "ECCENTRICITY": 0.0012252,
    "INCLINATION": 98.0811,
    "RA_OF_ASC_NODE": 126.1426,
    "ARG_OF_PERICENTER": 107.213,
    "MEAN_ANOMALY": 253.044,
    "EPHEMERIS_TYPE": 0,
    "CLASSIFICATION_TYPE": "U",
    "NORAD_CAT_ID": 40025,
    "ELEMENT_SET_NO": 999,
    "REV_AT_EPOCH": 59420,
    "BSTAR": 0.00038859,
    "MEAN_MOTION_DOT": 6.294e-05,
    "MEAN_MOTION_DDOT": 0
  },
  {
    "OBJECT_NAME": "LILACSAT-2",
    "OBJECT_ID": "2015-049K",
    "EPOCH": "2025-05-24T20:55:45.330816",
    "MEAN_MOTION": 15.38540055,
    "ECCENTRICITY": 0.0008504,
    "INCLINATION": 97.5064,
    "RA_OF_ASC_NODE": 164.8429,
    "ARG_OF_PERICENTER": 204.7691,
    "MEAN_ANOMALY": 155.3146,
    "EPHEMERIS_TYPE": 0,
    "CLASSIFICATION_TYPE": "U",
    "NORAD_CAT_ID": 40908,
    "ELEMENT_SET_NO": 999,
    "REV_AT_EPOCH": 53581,
    "BSTAR": 0.00025834,
    "MEAN_MOTION_DOT": 9.754e-05,
    "MEAN_MOTION_DDOT": 0
  },
  {
    "OBJECT_NAME": "FOX-1A (AO-85)",
    "OBJECT_ID": "2015-058D",
    "EPOCH": "2025-05-24T17:42:31.389120",
    "MEAN_MOTION": 14.87918979,
    "ECCENTRICITY": 0.016328,
    "INCLINATION": 64.7771,
    "RA_OF_ASC_NODE": 43.4308,
    "ARG_OF_PERICENTER": 200.597,
    "MEAN_ANOMALY": 158.8511,
    "EPHEMERIS_TYPE": 0,
    "CLASSIFICATION_TYPE": "U",
    "NORAD_CAT_ID": 40967,
    "ELEMENT_SET_NO": 999,
    "REV_AT_EPOCH": 5571,
    "BSTAR": 0.00017819,
    "MEAN_MOTION_DOT": 1.91e-05,
    "MEAN_MOTION_DDOT": 0
  },
  {
    "OBJECT_NAME": "CAS-2T & KS-1Q",
    "OBJECT_ID": "2016-066G",
    "EPOCH": "2025-05-24T11:03:41.165568",
    "MEAN_MOTION": 14.43427485,
    "ECCENTRICITY": 0.0345416,
    "INCLINATION": 98.4202,
    "RA_OF_ASC_NODE": 219.0632,
    "ARG_OF_PERICENTER": 227.1339,
    "MEAN_ANOMALY": 130.0365,
    "EPHEMERIS_TYPE": 0,
    "CLASSIFICATION_TYPE": "U",
    "NORAD_CAT_ID": 41847,
    "ELEMENT_SET_NO": 999,
    "REV_AT_EPOCH": 44869,
    "BSTAR": 0.00014438,
    "MEAN_MOTION_DOT": 9.44e-06,
    "MEAN_MOTION_DDOT": 0
  },
  {
    "OBJECT_NAME": "ZHUHAI-1 02 (CAS-4B)",
    "OBJECT_ID": "2017-034B",
    "EPOCH": "2025-05-24T20:51:02.926368",
    "MEAN_MOTION": 15.61315344,
    "ECCENTRICITY": 0.0019567,
    "INCLINATION": 43.0081,
    "RA_OF_ASC_NODE": 55.383,
    "ARG_OF_PERICENTER": 186.7107,
    "MEAN_ANOMALY": 173.3498,
    "EPHEMERIS_TYPE": 0,
    "CLASSIFICATION_TYPE": "U",
    "NORAD_CAT_ID": 42759,
    "ELEMENT_SET_NO": 999,
    "REV_AT_EPOCH": 44014,
    "BSTAR": 0.00054427,
    "MEAN_MOTION_DOT": 0.00047888,
    "MEAN_MOTION_DDOT": 0
  },
  {
    "OBJECT_NAME": "ZHUHAI-1 01 (CAS-4A)",
    "OBJECT_ID": "2017-034D",
    "EPOCH": "2025-05-24T18:52:06.856608",
    "MEAN_MOTION": 15.6243707,
    "ECCENTRICITY": 0.002092,
    "INCLINATION": 43.012,
    "RA_OF_ASC_NODE": 53.1924,
    "ARG_OF_PERICENTER": 190.1974,
    "MEAN_ANOMALY": 169.8468,
    "EPHEMERIS_TYPE": 0,
    "CLASSIFICATION_TYPE": "U",
    "NORAD_CAT_ID": 42761,
    "ELEMENT_SET_NO": 999,
    "REV_AT_EPOCH": 44015,
    "BSTAR": 0.00057696,
    "MEAN_MOTION_DOT": 0.00053182,
    "MEAN_MOTION_DDOT": 0
  },
  {
    "OBJECT_NAME": "RADFXSAT (FOX-1B)",
    "OBJECT_ID": "2017-073E",
    "EPOCH": "2025-05-24T15:09:30.803328",
    "MEAN_MOTION": 15.04465445,
    "ECCENTRICITY": 0.0172023,
    "INCLINATION": 97.5289,
    "RA_OF_ASC_NODE": 15.8117,
    "ARG_OF_PERICENTER": 220.4133,
    "MEAN_ANOMALY": 138.4211,
    "EPHEMERIS_TYPE": 0,
    "CLASSIFICATION_TYPE": "U",
    "NORAD_CAT_ID": 43017,
    "ELEMENT_SET_NO": 999,
    "REV_AT_EPOCH": 40681,
    "BSTAR": 0.00026127,
    "MEAN_MOTION_DOT": 5.01e-05,
    "MEAN_MOTION_DDOT": 0
  }
]